{"type": "FeatureCollection", "features": [ {"type": "Feature", "properties": {"norad_id": 66708, "name": "FLOCK 4H-5", "group": "last-30-days", "lat": 7.32829294572059, "lon": -105.78820240298433, "alt_km": 512.2861087497822, "timestamp": "2025-12-27T17:24:56.105052+00:00", "meta": {"OBJECT_NAME": "FLOCK 4H-5", "OBJECT_ID": "2025-276AU", "EPOCH": "2025-12-27T11:54:46.204704", "MEAN_MOTION": 15.18153439, "ECCENTRICITY": 0.0003367, "INCLINATION": 97.4375, "RA_OF_ASC_NODE": 73.0238, "ARG_OF_PERICENTER": 116.2301, "MEAN_ANOMALY": 243.9279, "EPHEMERIS_TYPE": 0, "CLASSIFICATION_TYPE": "U", "NORAD_CAT_ID": 66708, "ELEMENT_SET_NO": 999, "REV_AT_EPOCH": 436, "BSTAR": -0.0016005, "MEAN_MOTION_DOT": -0.00032584, "MEAN_MOTION_DDOT": 0}, "tle": {"line1": "1 66708U 25276AU  25361.49636811 -.00032584  00000+0 -16005-2 0  9991", "line2": "2 66708  97.4375  73.0238 0003367 116.2301 243.9279 15.18153439  4369"}}, "geometry": {"type": "Point", "coordinates": [-105.78820240298433, 7.32829294572059]}}, {"type": "Feature", "properties": {"norad_id": 66709, "name": "FLOCK 4H-6", "group": "last-30-days", "lat": 31.426307633739693, "lon": -102.15820527679027, "alt_km": 508.6797741690152, "timestamp": "2025-12-27T17:24:56.105061+00:00", "meta": {"OBJECT_NAME": "FLOCK 4H-6", "OBJECT_ID": "2025-276AV", "EPOCH": "2025-12-27T12:01:07.111200", "MEAN_MOTION": 15.17973318, "ECCENTRICITY": 0.0003037, "INCLINATION": 97.4424, "RA_OF_ASC_NODE": 73.0393, "ARG_OF_PERICENTER": 189.5168, "MEAN_ANOMALY": 170.6009, "EPHEMERIS_TYPE": 0, "CLASSIFICATION_TYPE": "U", "NORAD_CAT_ID": 66709, "ELEMENT_SET_NO": 999, "REV_AT_EPOCH": 436, "BSTAR": 0.00054642, "MEAN_MOTION_DOT": 0.00011044, "MEAN_MOTION_DDOT": 0}, "tle": {"line1": "1 66709U 25276AV  25361.50077675  .00011044  00000+0  54642-3 0  9997", "line2": "2 66709  97.4424  73.0393 0003037 189.5168 170.6009 15.17973318  4367"}}, "geometry": {"type": "Point", "coordinates": [-102.15820527679027, 31.426307633739693]}}, {"type": "Feature", "properties": {"norad_id": 66710, "name": "FLOCK 4H-7", "group": "last-30-days", "lat": 77.10809950697588, "lon": -71.97616329096148, "alt_km": 506.67001038397757, "timestamp": "2025-12-27T17:24:56.105073+00:00", "meta": {"OBJECT_NAME": "FLOCK 4H-7", "OBJECT_ID": "2025-276AW", "EPOCH": "2025-12-27T10:38:38.651424", "MEAN_MOTION": 15.17542716, "ECCENTRICITY": 0.0001055, "INCLINATION": 97.4383, "RA_OF_ASC_NODE": 72.94, "ARG_OF_PERICENTER": 254.694, "MEAN_ANOMALY": 105.4177, "EPHEMERIS_TYPE": 0, "CLASSIFICATION_TYPE": "U", "NORAD_CAT_ID": 66710, "ELEMENT_SET_NO": 999, "REV_AT_EPOCH": 435, "BSTAR": 0.00031692, "MEAN_MOTION_DOT": 6.294e-05, "MEAN_MOTION_DDOT": 0}, "tle": {"line1": "1 66710U 25276AW  25361.44350291  .00006294  00000+0  31692-3 0  9991", "line2": "2 66710  97.4383  72.9400 0001055 254.6940 105.4177 15.17542716  4355"}}, "geometry": {"type": "Point", "coordinates": [-71.97616329096148, 77.10809950697588]}}, {"type": "Feature", "properties": {"norad_id": 66711, "name": "FLOCK 4H-8", "group": "last-30-days", "lat": 78.10714659399314, "lon": -68.39309285043007, "alt_km": 507.27627609825777, "timestamp": "2025-12-27T17:24:56.105083+00:00", "meta": {"OBJECT_NAME": "FLOCK 4H-8", "OBJECT_ID": "2025-276AX", "EPOCH": "2025-12-27T10:38:58.284096", "MEAN_MOTION": 15.17551588, "ECCENTRICITY": 0.0002441, "INCLINATION": 97.4424, "RA_OF_ASC_NODE": 72.9627, "ARG_OF_PERICENTER": 243.0871, "MEAN_ANOMALY": 117.0114, "EPHEMERIS_TYPE": 0, "CLASSIFICATION_TYPE": "U", "NORAD_CAT_ID": 66711, "ELEMENT_SET_NO": 999, "REV_AT_EPOCH": 435, "BSTAR": 0.0005378, "MEAN_MOTION_DOT": 0.00010737, "MEAN_MOTION_DDOT": 0}, "tle": {"line1": "1 66711U 25276AX  25361.44373014  .00010737  00000+0  53780-3 0  9999", "line2": "2 66711  97.4424  72.9627 0002441 243.0871 117.0114 15.17551588  4355"}}, "geometry": {"type": "Point", "coordinates": [-68.39309285043007, 78.10714659399314]}}, {"type": "Feature", "properties": {"norad_id": 66712, "name": "FLOCK 4H-9", "group": "last-30-days", "lat": 26.436080386331547, "lon": -103.01524252467773, "alt_km": 492.0481022283693, "timestamp": "2025-12-27T17:24:56.105093+00:00", "meta": {"OBJECT_NAME": "FLOCK 4H-9", "OBJECT_ID": "2025-276AY", "EPOCH": "2025-12-27T08:50:49.985376", "MEAN_MOTION": 15.20200089, "ECCENTRICITY": 0.0016676, "INCLINATION": 97.4407, "RA_OF_ASC_NODE": 72.9067, "ARG_OF_PERICENTER": 189.309, "MEAN_ANOMALY": 170.7839, "EPHEMERIS_TYPE": 0, "CLASSIFICATION_TYPE": "U", "NORAD_CAT_ID": 66712, "ELEMENT_SET_NO": 999, "REV_AT_EPOCH": 434, "BSTAR": 0.063485, "MEAN_MOTION_DOT": 0.01508947, "MEAN_MOTION_DDOT": 0}, "tle": {"line1": "1 66712U 25276AY  25361.36863409  .01508947  00000+0  63485-1 0  9990", "line2": "2 66712  97.4407  72.9067 0016676 189.3090 170.7839 15.20200089  4345"}}, "geometry": {"type": "Point", "coordinates": [-103.01524252467773, 26.436080386331547]}}, {"type": "Feature", "properties": {"norad_id": 66713, "name": "FLOCK 4H-10", "group": "last-30-days", "lat": 75.98610075328783, "lon": 41.64708594350856, "alt_km": 508.89231482517243, "timestamp": "2025-12-27T17:24:56.105104+00:00", "meta": {"OBJECT_NAME": "FLOCK 4H-10", "OBJECT_ID": "2025-276AZ", "EPOCH": "2025-12-27T04:24:38.382912", "MEAN_MOTION": 15.17333427, "ECCENTRICITY": 0.00035798, "INCLINATION": 97.4388, "RA_OF_ASC_NODE": 72.682, "ARG_OF_PERICENTER": 232.5745, "MEAN_ANOMALY": 127.5163, "EPHEMERIS_TYPE": 0, "CLASSIFICATION_TYPE": "U", "NORAD_CAT_ID": 66713, "ELEMENT_SET_NO": 999, "REV_AT_EPOCH": 431, "BSTAR": 0.00039806637, "MEAN_MOTION_DOT": 7.878e-05, "MEAN_MOTION_DDOT": 0}, "tle": {"line1": "1 66713U 25276AZ  25361.18377758  .00007878  00000+0  39807-3 0  9997", "line2": "2 66713  97.4388  72.6820 0003579 232.5745 127.5163 15.17333427  4310"}}, "geometry": {"type": "Point", "coordinates": [41.64708594350856, 75.98610075328783]}}, {"type": "Feature", "properties": {"norad_id": 66714, "name": "FLOCK 4H-11", "group": "last-30-days", "lat": 62.806897683880585, "lon": -92.02142442797532, "alt_km": 507.0877240497848, "timestamp": "2025-12-27T17:24:56.105117+00:00", "meta": {"OBJECT_NAME": "FLOCK 4H-11", "OBJECT_ID": "2025-276BA", "EPOCH": "2025-12-27T10:34:36.492096", "MEAN_MOTION": 15.17897496, "ECCENTRICITY": 0.0002126, "INCLINATION": 97.4407, "RA_OF_ASC_NODE": 72.9621, "ARG_OF_PERICENTER": 250.4603, "MEAN_ANOMALY": 109.6402, "EPHEMERIS_TYPE": 0, "CLASSIFICATION_TYPE": "U", "NORAD_CAT_ID": 66714, "ELEMENT_SET_NO": 999, "REV_AT_EPOCH": 435, "BSTAR": 0.00061907, "MEAN_MOTION_DOT": 0.00012496, "MEAN_MOTION_DDOT": 0}, "tle": {"line1": "1 66714U 25276BA  25361.44070014  .00012496  00000+0  61907-3 0  9990", "line2": "2 66714  97.4407  72.9621 0002126 250.4603 109.6402 15.17897496  4356"}}, "geometry": {"type": "Point", "coordinates": [-92.02142442797532, 62.806897683880585]}}, {"type": "Feature", "properties": {"norad_id": 66715, "name": "FLOCK 4H-12", "group": "last-30-days", "lat": 18.232248905853627, "lon": -104.28764580433024, "alt_km": 511.05896385512096, "timestamp": "2025-12-27T17:24:56.105127+00:00", "meta": {"OBJECT_NAME": "FLOCK 4H-12", "OBJECT_ID": "2025-276BB", "EPOCH": "2025-12-27T11:57:39.578400", "MEAN_MOTION": 15.18156891, "ECCENTRICITY": 0.0001175, "INCLINATION": 97.439, "RA_OF_ASC_NODE": 73.0221, "ARG_OF_PERICENTER": 135.4882, "MEAN_ANOMALY": 224.6446, "EPHEMERIS_TYPE": 0, "CLASSIFICATION_TYPE": "U", "NORAD_CAT_ID": 66715, "ELEMENT_SET_NO": 999, "REV_AT_EPOCH": 467, "BSTAR": 0.002195, "MEAN_MOTION_DOT": 0.00045003, "MEAN_MOTION_DDOT": 0}, "tle": {"line1": "1 66715U 25276BB  25361.49837475  .00045003  00000+0  21950-2 0  9991", "line2": "2 66715  97.4390  73.0221 0001175 135.4882 224.6446 15.18156891  4679"}}, "geometry": {"type": "Point", "coordinates": [-104.28764580433024, 18.232248905853627]}}, {"type": "Feature", "properties": {"norad_id": 66716, "name": "FLOCK 4H-13", "group": "last-30-days", "lat": 4.935333977716485, "lon": -106.08721870266659, "alt_km": 512.4837313460575, "timestamp": "2025-12-27T17:24:56.105139+00:00", "meta": {"OBJECT_NAME": "FLOCK 4H-13", "OBJECT_ID": "2025-276BC", "EPOCH": "2025-12-27T11:54:08.968032", "MEAN_MOTION": 15.18258951, "ECCENTRICITY": 0.0001899, "INCLINATION": 97.4418, "RA_OF_ASC_NODE": 73.0401, "ARG_OF_PERICENTER": 136.4299, "MEAN_ANOMALY": 223.7085, "EPHEMERIS_TYPE": 0, "CLASSIFICATION_TYPE": "U", "NORAD_CAT_ID": 66716, "ELEMENT_SET_NO": 999, "REV_AT_EPOCH": 436, "BSTAR": 0.00085449, "MEAN_MOTION_DOT": 0.00017465, "MEAN_MOTION_DDOT": 0}, "tle": {"line1": "1 66716U 25276BC  25361.49593713  .00017465  00000+0  85449-3 0  9991", "line2": "2 66716  97.4418  73.0401 0001899 136.4299 223.7085 15.18258951  4362"}}, "geometry": {"type": "Point", "coordinates": [-106.08721870266659, 4.935333977716485]}}, {"type": "Feature", "properties": {"norad_id": 66717, "name": "FLOCK 4H-14", "group": "last-30-days", "lat": -8.474684445520431, "lon": -107.84866779069057, "alt_km": 514.1737328100171, "timestamp": "2025-12-27T17:24:56.105151+00:00", "meta": {"OBJECT_NAME": "FLOCK 4H-14", "OBJECT_ID": "2025-276BD", "EPOCH": "2025-12-26T20:01:39.073728", "MEAN_MOTION": 15.18400823, "ECCENTRICITY": 0.0001792, "INCLINATION": 97.4407, "RA_OF_ASC_NODE": 72.3904, "ARG_OF_PERICENTER": 129.2859, "MEAN_ANOMALY": 230.8535, "EPHEMERIS_TYPE": 0, "CLASSIFICATION_TYPE": "U", "NORAD_CAT_ID": 66717, "ELEMENT_SET_NO": 999, "REV_AT_EPOCH": 351, "BSTAR": 0.0003902, "MEAN_MOTION_DOT": 7.961e-05, "MEAN_MOTION_DDOT": 0}, "tle": {"line1": "1 66717U 25276BD  25360.83448002  .00007961  00000+0  39020-3 0  9993", "line2": "2 66717  97.4407  72.3904 0001792 129.2859 230.8535 15.18400823  3517"}}, "geometry": {"type": "Point", "coordinates": [-107.84866779069057, -8.474684445520431]}}]}